IRIDIUM 63              
1 25286U 98021B   25127.84855310  .00000560  00000+0  18423-3 0  9995
2 25286  86.3945  99.0559 0002442  85.4577 274.6899 14.36513561418053
IRIDIUM 69              
1 25319U 98026A   25127.70699811  .00000668  00000+0  20217-3 0  9997
2 25319  86.3937 112.5309 0003849 123.1517 237.0053 14.40929183417231
IRIDIUM 71              
1 25320U 98026B   25127.85811039  .00000632  00000+0  19018-3 0  9991
2 25320  86.3936 107.1633 0001851 148.9642 211.1667 14.41123958417788
IRIDIUM 73              
1 25344U 98032C   25127.87606839  .00000819  00000+0  19927-3 0  9992
2 25344  86.4416  63.9330 0002883  95.4428 264.7106 14.51668258424716
IRIDIUM 82              
1 25467U 98051A   25127.96889908  .00023430  00000+0  70153-3 0  9991
2 25467  86.3650 129.4844 0092335  89.6289 271.5540 15.30175355417809
